[{"OBJECT_NAME":"STARLINK-4385","OBJECT_ID":"2022-084K","EPOCH":"2026-03-09T16:55:25.071456","MEAN_MOTION":15.01260008,"ECCENTRICITY":0.00030379,"INCLINATION":97.602,"RA_OF_ASC_NODE":130.2285,"ARG_OF_PERICENTER":72.6956,"MEAN_ANOMALY":287.4601,"EPHEMERIS_TYPE":0,"CLASSIFICATION_TYPE":"U","NORAD_CAT_ID":53198,"ELEMENT_SET_NO":999,"REV_AT_EPOCH":19997,"BSTAR":2.3269437e-5,"MEAN_MOTION_DOT":2.41e-6,"MEAN_MOTION_DDOT":0},{"OBJECT_NAME":"FENGYUN 1C DEB","OBJECT_ID":"1999-025BBV","EPOCH":"2026-03-07T05:09:56.553696","MEAN_MOTION":14.80587574,"ECCENTRICITY":0.0186084,"INCLINATION":97.8242,"RA_OF_ASC_NODE":327.5507,"ARG_OF_PERICENTER":327.1548,"MEAN_ANOMALY":189.2508,"EPHEMERIS_TYPE":0,"CLASSIFICATION_TYPE":"U","NORAD_CAT_ID":30979,"ELEMENT_SET_NO":999,"REV_AT_EPOCH":371,"BSTAR":0.0016537,"MEAN_MOTION_DOT":0.0001706,"MEAN_MOTION_DDOT":0}]
